OOV-CUBE (TUBSAT-30)    
1 60240U 24128F   26066.63267267  .00005147  00000+0  39168-3 0  9994
2 60240  61.9946 219.5521 0054642 111.9163 248.7750 15.02232851 90851
